CCSDS_OMM_VERS = 2.0
CREATION_DATE  = 
ORIGINATOR     = 

OBJECT_NAME    = STARLINK-36439
OBJECT_ID      = 2026-020H
CENTER_NAME    = EARTH
REF_FRAME      = TEME
TIME_SYSTEM    = UTC
MEAN_ELEMENT_THEORY = SGP/SGP4

EPOCH          = 2026-02-11T14:00:01.999872
MEAN_MOTION    = 15.81989783
ECCENTRICITY   = .00019911
INCLINATION    = 42.9985
RA_OF_ASC_NODE = 300.8030
ARG_OF_PERICENTER = 269.2463
MEAN_ANOMALY   = 181.7249

EPHEMERIS_TYPE = 0
CLASSIFICATION_TYPE = U
NORAD_CAT_ID   = 67624
ELEMENT_SET_NO = 999
REV_AT_EPOCH   = 319
BSTAR          = -.22515067E-3
MEAN_MOTION_DOT = -.47627E-3
MEAN_MOTION_DDOT = 0

CCSDS_OMM_VERS = 2.0
CREATION_DATE  = 
ORIGINATOR     = 

OBJECT_NAME    = STARLINK-36438
OBJECT_ID      = 2026-020J
CENTER_NAME    = EARTH
REF_FRAME      = TEME
TIME_SYSTEM    = UTC
MEAN_ELEMENT_THEORY = SGP/SGP4

EPOCH          = 2026-02-11T14:00:01.999872
MEAN_MOTION    = 15.76463312
ECCENTRICITY   = .00016365
INCLINATION    = 42.9994
RA_OF_ASC_NODE = 300.8218
ARG_OF_PERICENTER = 246.1956
MEAN_ANOMALY   = 197.3958

EPHEMERIS_TYPE = 0
CLASSIFICATION_TYPE = U
NORAD_CAT_ID   = 67625
ELEMENT_SET_NO = 999
REV_AT_EPOCH   = 319
BSTAR          = -.15991591E-2
MEAN_MOTION_DOT = -.254339E-2
MEAN_MOTION_DDOT = 0

CCSDS_OMM_VERS = 2.0
CREATION_DATE  = 
ORIGINATOR     = 

OBJECT_NAME    = STARLINK-36436
OBJECT_ID      = 2026-020K
CENTER_NAME    = EARTH
REF_FRAME      = TEME
TIME_SYSTEM    = UTC
MEAN_ELEMENT_THEORY = SGP/SGP4

EPOCH          = 2026-02-11T14:00:01.999872
MEAN_MOTION    = 15.82038947
ECCENTRICITY   = .00017271
INCLINATION    = 42.9986
RA_OF_ASC_NODE = 300.7736
ARG_OF_PERICENTER = 285.2545
MEAN_ANOMALY   = 177.3273

EPHEMERIS_TYPE = 0
CLASSIFICATION_TYPE = U
NORAD_CAT_ID   = 67626
ELEMENT_SET_NO = 999
REV_AT_EPOCH   = 319
BSTAR          = -.59524168E-3
MEAN_MOTION_DOT = -.124227E-2
MEAN_MOTION_DDOT = 0

CCSDS_OMM_VERS = 2.0
CREATION_DATE  = 
ORIGINATOR     = 

OBJECT_NAME    = STARLINK-36502
OBJECT_ID      = 2026-020L
CENTER_NAME    = EARTH
REF_FRAME      = TEME
TIME_SYSTEM    = UTC
MEAN_ELEMENT_THEORY = SGP/SGP4

EPOCH          = 2026-02-11T14:00:01.999872
MEAN_MOTION    = 15.81994110
ECCENTRICITY   = .00018946
INCLINATION    = 42.9987
RA_OF_ASC_NODE = 300.7846
ARG_OF_PERICENTER = 277.8707
MEAN_ANOMALY   = 180.5444

EPHEMERIS_TYPE = 0
CLASSIFICATION_TYPE = U
NORAD_CAT_ID   = 67627
ELEMENT_SET_NO = 999
REV_AT_EPOCH   = 319
BSTAR          = -.44390869E-4
MEAN_MOTION_DOT = -.9861E-4
MEAN_MOTION_DDOT = 0

CCSDS_OMM_VERS = 2.0
CREATION_DATE  = 
ORIGINATOR     = 

OBJECT_NAME    = STARLINK-36532
OBJECT_ID      = 2026-020M
CENTER_NAME    = EARTH
REF_FRAME      = TEME
TIME_SYSTEM    = UTC
MEAN_ELEMENT_THEORY = SGP/SGP4

EPOCH          = 2026-02-11T14:00:01.999872
MEAN_MOTION    = 15.82037099
ECCENTRICITY   = .00020876
INCLINATION    = 42.9986
RA_OF_ASC_NODE = 300.7554
ARG_OF_PERICENTER = 273.3683
MEAN_ANOMALY   = 196.2539

EPHEMERIS_TYPE = 0
CLASSIFICATION_TYPE = U
NORAD_CAT_ID   = 67628
ELEMENT_SET_NO = 999
REV_AT_EPOCH   = 319
BSTAR          = -.58881712E-3
MEAN_MOTION_DOT = -.122909E-2
MEAN_MOTION_DDOT = 0

CCSDS_OMM_VERS = 2.0
CREATION_DATE  = 
ORIGINATOR     = 

OBJECT_NAME    = STARLINK-36367
OBJECT_ID      = 2026-020N
CENTER_NAME    = EARTH
REF_FRAME      = TEME
TIME_SYSTEM    = UTC
MEAN_ELEMENT_THEORY = SGP/SGP4

EPOCH          = 2026-02-11T14:00:01.999872
MEAN_MOTION    = 15.81988860
ECCENTRICITY   = .00018264
INCLINATION    = 42.9986
RA_OF_ASC_NODE = 300.7632
ARG_OF_PERICENTER = 266.6738
MEAN_ANOMALY   = 200.1504

EPHEMERIS_TYPE = 0
CLASSIFICATION_TYPE = U
NORAD_CAT_ID   = 67629
ELEMENT_SET_NO = 999
REV_AT_EPOCH   = 319
BSTAR          = -.19963877E-3
MEAN_MOTION_DOT = -.42314E-3
MEAN_MOTION_DDOT = 0

CCSDS_OMM_VERS = 2.0
CREATION_DATE  = 
ORIGINATOR     = 

OBJECT_NAME    = STARLINK-36416
OBJECT_ID      = 2026-020P
CENTER_NAME    = EARTH
REF_FRAME      = TEME
TIME_SYSTEM    = UTC
MEAN_ELEMENT_THEORY = SGP/SGP4

EPOCH          = 2026-02-11T14:00:01.999872
MEAN_MOTION    = 15.76343878
ECCENTRICITY   = .00023018
INCLINATION    = 42.9992
RA_OF_ASC_NODE = 300.7903
ARG_OF_PERICENTER = 260.5305
MEAN_ANOMALY   = 195.5700

EPHEMERIS_TYPE = 0
CLASSIFICATION_TYPE = U
NORAD_CAT_ID   = 67630
ELEMENT_SET_NO = 999
REV_AT_EPOCH   = 319
BSTAR          = .11007011E-3
MEAN_MOTION_DOT = .17456E-3
MEAN_MOTION_DDOT = 0

CCSDS_OMM_VERS = 2.0
CREATION_DATE  = 
ORIGINATOR     = 

OBJECT_NAME    = STARLINK-36527
OBJECT_ID      = 2026-020Q
CENTER_NAME    = EARTH
REF_FRAME      = TEME
TIME_SYSTEM    = UTC
MEAN_ELEMENT_THEORY = SGP/SGP4

EPOCH          = 2026-02-11T14:00:01.999872
MEAN_MOTION    = 15.81985972
ECCENTRICITY   = .00021974
INCLINATION    = 42.9986
RA_OF_ASC_NODE = 300.7407
ARG_OF_PERICENTER = 292.9486
MEAN_ANOMALY   = 182.8992

EPHEMERIS_TYPE = 0
CLASSIFICATION_TYPE = U
NORAD_CAT_ID   = 67631
ELEMENT_SET_NO = 999
REV_AT_EPOCH   = 319
BSTAR          = -.12705196E-3
MEAN_MOTION_DOT = -.27168E-3
MEAN_MOTION_DDOT = 0

CCSDS_OMM_VERS = 2.0
CREATION_DATE  = 
ORIGINATOR     = 

OBJECT_NAME    = STARLINK-36633
OBJECT_ID      = 2026-020R
CENTER_NAME    = EARTH
REF_FRAME      = TEME
TIME_SYSTEM    = UTC
MEAN_ELEMENT_THEORY = SGP/SGP4

EPOCH          = 2026-02-11T14:00:01.999872
MEAN_MOTION    = 15.81995048
ECCENTRICITY   = .00020904
INCLINATION    = 42.9987
RA_OF_ASC_NODE = 300.7298
ARG_OF_PERICENTER = 302.4376
MEAN_ANOMALY   = 177.6006

EPHEMERIS_TYPE = 0
CLASSIFICATION_TYPE = U
NORAD_CAT_ID   = 67632
ELEMENT_SET_NO = 999
REV_AT_EPOCH   = 319
BSTAR          = -.23096529E-3
MEAN_MOTION_DOT = -.4885E-3
MEAN_MOTION_DDOT = 0

CCSDS_OMM_VERS = 2.0
CREATION_DATE  = 
ORIGINATOR     = 

OBJECT_NAME    = STARLINK-36637
OBJECT_ID      = 2026-020S
CENTER_NAME    = EARTH
REF_FRAME      = TEME
TIME_SYSTEM    = UTC
MEAN_ELEMENT_THEORY = SGP/SGP4

EPOCH          = 2026-02-11T14:00:01.999872
MEAN_MOTION    = 15.76325864
ECCENTRICITY   = .00020872
INCLINATION    = 42.9990
RA_OF_ASC_NODE = 300.7588
ARG_OF_PERICENTER = 262.6440
MEAN_ANOMALY   = 205.9062

EPHEMERIS_TYPE = 0
CLASSIFICATION_TYPE = U
NORAD_CAT_ID   = 67633
ELEMENT_SET_NO = 999
REV_AT_EPOCH   = 319
BSTAR          = .34550628E-3
MEAN_MOTION_DOT = .56049E-3
MEAN_MOTION_DDOT = 0

CCSDS_OMM_VERS = 2.0
CREATION_DATE  = 
ORIGINATOR     = 

OBJECT_NAME    = STARLINK-36617
OBJECT_ID      = 2026-020T
CENTER_NAME    = EARTH
REF_FRAME      = TEME
TIME_SYSTEM    = UTC
MEAN_ELEMENT_THEORY = SGP/SGP4

EPOCH          = 2026-02-11T14:00:01.999872
MEAN_MOTION    = 15.82027452
ECCENTRICITY   = .00017744
INCLINATION    = 42.9987
RA_OF_ASC_NODE = 300.7117
ARG_OF_PERICENTER = 279.1405
MEAN_ANOMALY   = 208.2213

EPHEMERIS_TYPE = 0
CLASSIFICATION_TYPE = U
NORAD_CAT_ID   = 67634
ELEMENT_SET_NO = 999
REV_AT_EPOCH   = 319
BSTAR          = -.49457849E-3
MEAN_MOTION_DOT = -.103499E-2
MEAN_MOTION_DDOT = 0

CCSDS_OMM_VERS = 2.0
CREATION_DATE  = 
ORIGINATOR     = 

OBJECT_NAME    = STARLINK-36627
OBJECT_ID      = 2026-020U
CENTER_NAME    = EARTH
REF_FRAME      = TEME
TIME_SYSTEM    = UTC
MEAN_ELEMENT_THEORY = SGP/SGP4

EPOCH          = 2026-02-11T14:00:01.999872
MEAN_MOTION    = 15.80130108
ECCENTRICITY   = .00014298
INCLINATION    = 42.9990
RA_OF_ASC_NODE = 300.6802
ARG_OF_PERICENTER = 260.3106
MEAN_ANOMALY   = 239.4115

EPHEMERIS_TYPE = 0
CLASSIFICATION_TYPE = U
NORAD_CAT_ID   = 67635
ELEMENT_SET_NO = 999
REV_AT_EPOCH   = 319
BSTAR          = -.1121626E-1
MEAN_MOTION_DOT = -.1889201E-1
MEAN_MOTION_DDOT = 0

