STARLINK-36439          
1 67624U 26020H   26042.58335648 -.00047627  00000+0 -22515-3 0  9996
2 67624  42.9985 300.8030 0001991 269.2463 181.7249 15.81989783  3194
STARLINK-36438          
1 67625U 26020J   26042.58335648 -.00254339  00000+0 -15992-2 0  9997
2 67625  42.9994 300.8218 0001636 246.1956 197.3958 15.76463312  3199
STARLINK-36436          
1 67626U 26020K   26042.58335648 -.00124227  00000+0 -59524-3 0  9990
2 67626  42.9986 300.7736 0001727 285.2545 177.3273 15.82038947  3191
STARLINK-36502          
1 67627U 26020L   26042.58335648 -.00009861  00000+0 -44391-4 0  9994
2 67627  42.9987 300.7846 0001894 277.8707 180.5444 15.81994110  3195
STARLINK-36532          
1 67628U 26020M   26042.58335648 -.00122909  00000+0 -58882-3 0  9993
2 67628  42.9986 300.7554 0002087 273.3683 196.2539 15.82037099  3194
STARLINK-36367          
1 67629U 26020N   26042.58335648 -.00042314  00000+0 -19964-3 0  9993
2 67629  42.9986 300.7632 0001826 266.6738 200.1504 15.81988860  3195
STARLINK-36416          
1 67630U 26020P   26042.58335648  .00017456  00000+0  11007-3 0  9992
2 67630  42.9992 300.7903 0002301 260.5305 195.5700 15.76343878  3190
STARLINK-36527          
1 67631U 26020Q   26042.58335648 -.00027168  00000+0 -12705-3 0  9992
2 67631  42.9986 300.7407 0002197 292.9486 182.8992 15.81985972  3190
STARLINK-36633          
1 67632U 26020R   26042.58335648 -.00048850  00000+0 -23097-3 0  9990
2 67632  42.9987 300.7298 0002090 302.4376 177.6006 15.81995048  3190
STARLINK-36637          
1 67633U 26020S   26042.58335648  .00056049  00000+0  34551-3 0  9995
2 67633  42.9990 300.7588 0002087 262.6440 205.9062 15.76325864  3196
STARLINK-36617          
1 67634U 26020T   26042.58335648 -.00103499  00000+0 -49458-3 0  9992
2 67634  42.9987 300.7117 0001774 279.1405 208.2213 15.82027452  3190
STARLINK-36627          
1 67635U 26020U   26042.58335648 -.01889201  00000+0 -11216-1 0  9995
2 67635  42.9990 300.6802 0001429 260.3106 239.4115 15.80130108  3190
